[{"OBJECT_NAME":"STARLINK-1559","OBJECT_ID":"2020-055BC","EPOCH":"2026-03-09T05:36:23.522976","MEAN_MOTION":15.29461733,"ECCENTRICITY":0.0004229,"INCLINATION":53.0254,"RA_OF_ASC_NODE":76.0659,"ARG_OF_PERICENTER":33.971,"MEAN_ANOMALY":326.1559,"EPHEMERIS_TYPE":0,"CLASSIFICATION_TYPE":"U","NORAD_CAT_ID":46077,"ELEMENT_SET_NO":999,"REV_AT_EPOCH":30951,"BSTAR":0.0014778793,"MEAN_MOTION_DOT":0.00042685,"MEAN_MOTION_DDOT":0},{"OBJECT_NAME":"STARLINK-31167","OBJECT_ID":"2024-005S","EPOCH":"2026-03-09T00:52:07.874400","MEAN_MOTION":15.27573821,"ECCENTRICITY":9.415e-5,"INCLINATION":43.0006,"RA_OF_ASC_NODE":77.9924,"ARG_OF_PERICENTER":260.026,"MEAN_ANOMALY":100.0485,"EPHEMERIS_TYPE":0,"CLASSIFICATION_TYPE":"U","NORAD_CAT_ID":58744,"ELEMENT_SET_NO":999,"REV_AT_EPOCH":12210,"BSTAR":2.838807e-6,"MEAN_MOTION_DOT":-1.84e-6,"MEAN_MOTION_DDOT":0}]
