STARLINK-1559           
1 46077U 20055BC  26068.23360559  .00042685  00000+0  14779-2 0  9995
2 46077  53.0254  76.0659 0004229  33.9710 326.1559 15.29461733309518
STARLINK-31167          
1 58744U 24005S   26068.03620225 -.00000184  00000+0  28388-5 0  9998
2 58744  43.0006  77.9924 0000941 260.0260 100.0485 15.27573821122106
